{
    "links": {
        "self": "http://www.neowsapp.com/rest/v1/neo/3455468?api_key=iIulBulltgU6a56xZRHN4H3l9WmuAYTsLGpBGhQ2"
    },
    "id": "3455468",
    "neo_reference_id": "3455468",
    "name": "(2009 FN32)",
    "designation": "2009 FN32",
    "nasa_jpl_url": "http://ssd.jpl.nasa.gov/sbdb.cgi?sstr=3455468",
    "absolute_magnitude_h": 22.1,
    "estimated_diameter": {
        "kilometers": {
            "estimated_diameter_min": 0.1010543415,
            "estimated_diameter_max": 0.2259643771
        },
        "meters": {
            "estimated_diameter_min": 101.054341542,
            "estimated_diameter_max": 225.9643771094
        },
        "miles": {
            "estimated_diameter_min": 0.0627922373,
            "estimated_diameter_max": 0.140407711
        },
        "feet": {
            "estimated_diameter_min": 331.5431259047,
            "estimated_diameter_max": 741.3529669956
        }
    },
    "is_potentially_hazardous_asteroid": false,
    "close_approach_data": [
        {
            "close_approach_date": "2009-03-30",
            "close_approach_date_full": "2009-Mar-30 21:30",
            "epoch_date_close_approach": 1238448600000,
            "relative_velocity": {
                "kilometers_per_second": "17.1674827151",
                "kilometers_per_hour": "61802.9377743089",
                "miles_per_hour": "38401.9420853754"
            },
            "miss_distance": {
                "astronomical": "0.2124765511",
                "lunar": "82.6533783779",
                "kilometers": "31786039.469506157",
                "miles": "19750929.0636006866"
            },
            "orbiting_body": "Earth"
        },
        {
            "close_approach_date": "2010-11-27",
            "close_approach_date_full": "2010-Nov-27 19:56",
            "epoch_date_close_approach": 1290887760000,
            "relative_velocity": {
                "kilometers_per_second": "6.9161269891",
                "kilometers_per_hour": "24898.0571606429",
                "miles_per_hour": "15470.684461845"
            },
            "miss_distance": {
                "astronomical": "1.7607772676",
                "lunar": "684.9423570964",
                "kilometers": "263408528.777380012",
                "miles": "163674470.0962356856"
            },
            "orbiting_body": "Juptr"
        }
    ],
    "orbital_data": {
        "orbit_id": "12",
        "orbit_determination_date": "2017-04-06 09:00:51",
        "first_observation_date": "2009-03-28",
        "last_observation_date": "2009-05-17",
        "data_arc_in_days": 50,
        "observations_used": 45,
        "orbit_uncertainty": "7",
        "minimum_orbit_intersection": ".17655",
        "jupiter_tisserand_invariant": "3.231",
        "epoch_osculation": "2459000.5",
        "eccentricity": ".5039908326069119",
        "semi_major_axis": "2.343714734246187",
        "inclination": "29.36175785514901",
        "ascending_node_longitude": "188.9044195997198",
        "orbital_period": "1310.555907292597",
        "perihelion_distance": "1.162503993940364",
        "perihelion_argument": "16.92576767027794",
        "aphelion_distance": "3.52492547455201",
        "perihelion_time": "2458868.584923403802",
        "mean_anomaly": "36.23609440114399",
        "mean_motion": ".2746925926599375",
        "equinox": "J2000",
        "orbit_class": {
            "orbit_class_type": "AMO",
            "orbit_class_description": "Near-Earth asteroid orbits similar to that of 1221 Amor",
            "orbit_class_range": "1.017 AU < q (perihelion) < 1.3 AU"
        }
    },
    "is_sentry_object": false
}